[{"OBJECT_NAME":"YUNHAI-2 02F","OBJECT_ID":"2024-052F","EPOCH":"2026-03-09T21:57:33.541056","MEAN_MOTION":14.27880758,"ECCENTRICITY":0.00054431,"INCLINATION":50.0098,"RA_OF_ASC_NODE":263.5952,"ARG_OF_PERICENTER":191.0997,"MEAN_ANOMALY":168.9799,"EPHEMERIS_TYPE":0,"CLASSIFICATION_TYPE":"U","NORAD_CAT_ID":59285,"ELEMENT_SET_NO":999,"REV_AT_EPOCH":10497,"BSTAR":0.0001263727,"MEAN_MOTION_DOT":1.54e-6,"MEAN_MOTION_DDOT":0},{"OBJECT_NAME":"CZ-6A DEB","OBJECT_ID":"2024-140ADH","EPOCH":"2026-03-09T14:34:14.235744","MEAN_MOTION":14.23476866,"ECCENTRICITY":0.0068132,"INCLINATION":88.9742,"RA_OF_ASC_NODE":284.4185,"ARG_OF_PERICENTER":143.2232,"MEAN_ANOMALY":217.3664,"EPHEMERIS_TYPE":0,"CLASSIFICATION_TYPE":"U","NORAD_CAT_ID":61841,"ELEMENT_SET_NO":999,"REV_AT_EPOCH":8083,"BSTAR":0.003039,"MEAN_MOTION_DOT":7.088e-5,"MEAN_MOTION_DDOT":0}]
